[{"OBJECT_NAME":"STARLINK-11550 [DTC]","OBJECT_ID":"2025-035A","EPOCH":"2026-03-09T05:55:46.267392","MEAN_MOTION":15.70875066,"ECCENTRICITY":0.00015327,"INCLINATION":43.0009,"RA_OF_ASC_NODE":17.8004,"ARG_OF_PERICENTER":278.4172,"MEAN_ANOMALY":81.6522,"EPHEMERIS_TYPE":0,"CLASSIFICATION_TYPE":"U","NORAD_CAT_ID":63052,"ELEMENT_SET_NO":999,"REV_AT_EPOCH":6115,"BSTAR":0.0012493185,"MEAN_MOTION_DOT":0.00163283,"MEAN_MOTION_DDOT":0},{"OBJECT_NAME":"CZ-6A DEB","OBJECT_ID":"2024-140AY","EPOCH":"2026-03-09T23:18:41.702400","MEAN_MOTION":15.62067616,"ECCENTRICITY":0.0034385,"INCLINATION":89.347,"RA_OF_ASC_NODE":305.7787,"ARG_OF_PERICENTER":51.1175,"MEAN_ANOMALY":309.3152,"EPHEMERIS_TYPE":0,"CLASSIFICATION_TYPE":"U","NORAD_CAT_ID":60647,"ELEMENT_SET_NO":999,"REV_AT_EPOCH":8292,"BSTAR":0.0060093898,"MEAN_MOTION_DOT":0.00575832,"MEAN_MOTION_DDOT":0}]
